ONEWEB-0665             
1 55825U 23029AF  26008.15879571  .00000246  00000+0  63002-3 0  9995
2 55825  87.9016 321.6224 0001763  68.3081 291.8236 13.14501703138380
ONEWEB-0666             
1 55826U 23029AG  26008.11104884  .00000009  00000+0 -88962-5 0  9992
2 55826  87.9222 306.4177 0001727 101.8245 258.3082 13.20770478140028
ONEWEB-0667             
1 55827U 23029AH  26008.18049891 -.00000003  00000+0 -40168-4 0  9996
2 55827  87.9233 306.3395 0001840  71.6834 288.4500 13.20770535140029
ONEWEB-0669             
1 55828U 23029AJ  26008.10000301  .00000065  00000+0  12789-3 0  9995
2 55828  87.9222 306.3866 0002287  85.1397 274.9998 13.20770211140012
ONEWEB-0670             
1 55829U 23029AK  26007.90822545 -.00000043  00000+0 -15081-3 0  9991
2 55829  87.9011 321.6919 0002068  72.9367 287.1989 13.14505258138378
ONEWEB-0671             
1 55830U 23029AL  26008.16588613  .00000085  00000+0  18105-3 0  9991
2 55830  87.9223 336.8202 0001866  76.6725 283.4616 13.19724333137795
ONEWEB-0672             
1 55831U 23029AM  26008.09527645  .00000050  00000+0  90893-4 0  9999
2 55831  87.9226 306.3694 0001795  85.2062 274.9276 13.20771247140011
ONEWEB-0673             
1 55832U 23029AN  26008.14298398 -.00000071  00000+0 -20852-3 0  9998
2 55832  87.9233 336.8077 0001850  78.0083 282.1257 13.19724188137799
